[{"OBJECT_NAME":"STARLINK-4663","OBJECT_ID":"2022-107AA","EPOCH":"2026-03-09T17:41:32.412480","MEAN_MOTION":15.08839925,"ECCENTRICITY":0.00012331,"INCLINATION":53.2175,"RA_OF_ASC_NODE":253.7051,"ARG_OF_PERICENTER":93.3528,"MEAN_ANOMALY":266.7605,"EPHEMERIS_TYPE":0,"CLASSIFICATION_TYPE":"U","NORAD_CAT_ID":53724,"ELEMENT_SET_NO":999,"REV_AT_EPOCH":19442,"BSTAR":0.00018783567,"MEAN_MOTION_DOT":2.703e-5,"MEAN_MOTION_DDOT":0},{"OBJECT_NAME":"OBJECT B","OBJECT_ID":"2024-174B","EPOCH":"2026-03-09T23:26:11.570784","MEAN_MOTION":15.09493991,"ECCENTRICITY":0.00195829,"INCLINATION":97.4508,"RA_OF_ASC_NODE":75.153,"ARG_OF_PERICENTER":270.277,"MEAN_ANOMALY":89.6216,"EPHEMERIS_TYPE":0,"CLASSIFICATION_TYPE":"U","NORAD_CAT_ID":61239,"ELEMENT_SET_NO":999,"REV_AT_EPOCH":8042,"BSTAR":0.00031274192,"MEAN_MOTION_DOT":4.97e-5,"MEAN_MOTION_DDOT":0}]
